NORAD_CAT_ID,OBJECT_NAME,OBJECT_TYPE,EPOCH,MEAN_MOTION,ECCENTRICITY,INCLINATION,RA_OF_ASC_NODE,ARG_OF_PERICENTER,MEAN_ANOMALY,BSTAR,MEAN_MOTION_DOT,MEAN_MOTION_DDOT,TLE_LINE0,TLE_LINE1,TLE_LINE2,SEMIMAJOR_AXIS,PERIOD,APOGEE,PERIGEE,DECAYED
54795.0,STARLINK-5436,PAYLOAD,2023-11-11 00:56:50,15.08841693,0.0001318,53.2165,243.1784,82.8337,277.2804,-2.4261e-05,-6.74e-06,0.0,0 STARLINK-5436,1 54795U 22175AP  23315.03947043 -.00000674  00000-0 -24261-4 0  9999,2 54795  53.2165 243.1784 0001318  82.8337 277.2804 15.08841693 49702,6917.875,95.437,540.652,538.828,0.0
54795.0,STARLINK-5436,PAYLOAD,2023-11-11 12:04:32,15.0884204,0.0001397,53.2175,241.0916,88.6397,271.4755,8.0873e-05,9.99e-06,0.0,0 STARLINK-5436,1 54795U 22175AP  23315.50314919  .00000999  00000-0  80873-4 0  9990,2 54795  53.2175 241.0916 0001397  88.6397 271.4755 15.08842040 51930,6917.874,95.437,540.706,538.773,0.0
54795.0,STARLINK-5436,PAYLOAD,2023-11-12 02:23:00,15.08841459,0.0001489,53.2167,238.4174,81.9863,278.1298,4.0721e-05,3.6e-06,0.0,0 STARLINK-5436,1 54795U 22175AP  23316.09931253  .00000360  00000-0  40721-4 0  9991,2 54795  53.2167 238.4174 0001489  81.9863 278.1298 15.08841459 49861,6917.876,95.437,540.771,538.711,0.0
54795.0,STARLINK-5436,PAYLOAD,2023-11-12 13:30:42,15.08845603,0.000141,53.2159,236.3381,87.1448,272.9705,7.4044e-05,8.91e-06,0.0,0 STARLINK-5436,1 54795U 22175AP  23316.56299019  .00000891  00000-0  74044-4 0  9994,2 54795  53.2159 236.3381 0001410  87.1448 272.9705 15.08845603 52099,6917.863,95.437,540.704,538.753,0.0
54795.0,STARLINK-5436,PAYLOAD,2023-11-12 21:27:38,15.08838665,0.0001646,53.2164,234.8521,77.4308,282.6868,0.00013008,1.783e-05,0.0,0 STARLINK-5436,1 54795U 22175AP  23316.89419745  .00001783  00000-0  13008-3 0  9993,2 54795  53.2164 234.8521 0001646  77.4308 282.6868 15.08838665 52146,6917.884,95.438,540.888,538.611,0.0
54795.0,STARLINK-5436,PAYLOAD,2023-11-13 03:49:10,15.08851658,0.0001505,53.2159,233.6619,87.1132,273.0032,0.00018749,2.698e-05,0.0,0 STARLINK-5436,1 54795U 22175AP  23317.15914791  .00002698  00000-0  18749-3 0  9997,2 54795  53.2159 233.6619 0001505  87.1132 273.0032 15.08851658 50021,6917.845,95.437,540.751,538.669,0.0
54795.0,STARLINK-5436,PAYLOAD,2023-11-13 11:46:06,15.08841879,0.0001518,53.2169,232.1712,95.676,264.4405,1.6054e-05,-3.2e-07,0.0,0 STARLINK-5436,1 54795U 22175AP  23317.49035098 -.00000032  00000-0  16054-4 0  9997,2 54795  53.2169 232.1712 0001518  95.6760 264.4405 15.08841879 50072,6917.875,95.437,540.79,538.69,0.0
54795.0,STARLINK-5436,PAYLOAD,2023-11-14 11:36:53,15.08838344,0.0001362,53.2173,227.7098,95.8647,264.25,1.6673e-05,-2.3e-07,0.0,0 STARLINK-5436,1 54795U 22175AP  23318.48395561 -.00000023  00000-0  16673-4 0  9998,2 54795  53.2173 227.7098 0001362  95.8647 264.2500 15.08838344 50221,6917.885,95.438,540.693,538.808,0.0
54795.0,STARLINK-5436,PAYLOAD,2023-11-14 21:09:13,15.08809265,0.0001009,53.2182,225.926,109.5926,250.5176,0.00041337,6.292e-05,0.0,0 STARLINK-5436,1 54795U 22175AP  23318.88140668  .00006292  00000-0  41337-3 0  9995,2 54795  53.2182 225.9260 0001009 109.5926 250.5176 15.08809265 52446,6917.974,95.439,540.537,539.141,0.0
54795.0,STARLINK-5436,PAYLOAD,2023-11-15 20:59:59,15.08842898,0.0001493,53.2174,221.4673,97.9898,262.1264,7.7826e-05,9.51e-06,0.0,0 STARLINK-5436,1 54795U 22175AP  23319.87499298  .00000951  00000-0  77826-4 0  9990,2 54795  53.2174 221.4673 0001493  97.9898 262.1264 15.08842898 52593,6917.872,95.437,540.769,538.704,0.0
54795.0,STARLINK-5436,PAYLOAD,2023-11-16 03:21:31,15.08851134,0.0001424,53.2174,220.2779,97.6209,262.4945,8.846e-05,1.121e-05,0.0,0 STARLINK-5436,1 54795U 22175AP  23320.13994728  .00001121  00000-0  88460-4 0  9995,2 54795  53.2174 220.2779 0001424  97.6209 262.4945 15.08851134 50471,6917.846,95.437,540.696,538.726,0.0
54795.0,STARLINK-5436,PAYLOAD,2023-11-16 17:40:00,15.08835265,0.0001755,53.2176,217.5982,102.0622,258.0567,8.8786e-05,1.125e-05,0.0,0 STARLINK-5436,1 54795U 22175AP  23320.73611871  .00001125  00000-0  88786-4 0  9991,2 54795  53.2176 217.5982 0001755 102.0622 258.0567 15.08835265 50563,6917.895,95.438,540.974,538.546,0.0
54795.0,STARLINK-5436,PAYLOAD,2023-11-17 09:33:52,15.08842079,0.0001334,53.2169,214.63,86.9047,273.2098,1.8366e-05,4e-08,0.0,0 STARLINK-5436,1 54795U 22175AP  23321.39851918  .00000004  00000-0  18366-4 0  9994,2 54795  53.2169 214.6300 0001334  86.9047 273.2098 15.08842079 52821,6917.874,95.437,540.662,538.816,0.0
54795.0,STARLINK-5436,PAYLOAD,2023-11-17 17:30:47,15.08837212,0.0001183,53.2173,213.1441,87.3135,272.7992,7.8682e-05,9.65e-06,0.0,0 STARLINK-5436,1 54795U 22175AP  23321.72971900  .00000965  00000-0  78682-4 0  9998,2 54795  53.2173 213.1441 0001183  87.3135 272.7992 15.08837212 52876,6917.889,95.438,540.572,538.936,0.0
54795.0,STARLINK-5436,PAYLOAD,2023-11-17 23:52:19,15.08844276,0.0001347,53.2165,211.9544,86.8794,273.2352,3.9234e-05,3.37e-06,0.0,0 STARLINK-5436,1 54795U 22175AP  23321.99467586  .00000337  00000-0  39234-4 0  9990,2 54795  53.2165 211.9544 0001347  86.8794 273.2352 15.08844276 50753,6917.867,95.437,540.664,538.8,0.0
54795.0,STARLINK-5436,PAYLOAD,2023-11-18 09:24:39,15.08837876,0.0001363,53.2161,210.1697,84.9501,275.1647,9.645e-05,1.247e-05,0.0,0 STARLINK-5436,1 54795U 22175AP  23322.39211922  .00001247  00000-0  96450-4 0  9990,2 54795  53.2161 210.1697 0001363  84.9501 275.1647 15.08837876 52974,6917.887,95.438,540.695,538.809,0.0
54795.0,STARLINK-5436,PAYLOAD,2023-11-18 15:46:11,15.08836167,0.0001406,53.2157,208.9807,84.9041,275.2111,9.6529e-05,1.249e-05,0.0,0 STARLINK-5436,1 54795U 22175AP  23322.65708064  .00001249  00000-0  96529-4 0  9996,2 54795  53.2157 208.9807 0001406  84.9041 275.2111 15.08836167 50858,6917.892,95.438,540.73,538.784,0.0
54795.0,STARLINK-5436,PAYLOAD,2023-11-19 09:15:26,15.08839027,0.0001525,53.2155,205.7089,85.0589,275.0577,9.9704e-05,1.299e-05,0.0,0 STARLINK-5436,1 54795U 22175AP  23323.38572015  .00001299  00000-0  99704-4 0  9995,2 54795  53.2155 205.7089 0001525  85.0589 275.0577 15.08839027 53129,6917.883,95.438,540.803,538.693,0.0
54795.0,STARLINK-5436,PAYLOAD,2023-11-19 20:23:08,15.08839111,0.0001582,53.2168,203.628,90.51,269.6073,3.9248e-05,3.37e-06,0.0,0 STARLINK-5436,1 54795U 22175AP  23323.84940187  .00000337  00000-0  39248-4 0  9994,2 54795  53.2168 203.6280 0001582  90.5100 269.6073 15.08839111 51038,6917.883,95.438,540.843,538.654,0.0
54795.0,STARLINK-5436,PAYLOAD,2023-11-19 21:58:31,15.08837747,0.0001623,53.2174,203.331,91.8948,268.223,5.5307e-05,5.92e-06,0.0,0 STARLINK-5436,1 54795U 22175AP  23323.91564170  .00000592  00000-0  55307-4 0  9993,2 54795  53.2174 203.3310 0001623  91.8948 268.2230 15.08837747 53200,6917.887,95.438,540.875,538.63,0.0
54795.0,STARLINK-5436,PAYLOAD,2023-11-20 09:06:13,15.08840052,0.0001618,53.2166,201.249,90.058,270.0597,7.1089e-05,8.44e-06,0.0,0 STARLINK-5436,1 54795U 22175AP  23324.37932040  .00000844  00000-0  71089-4 0  9994,2 54795  53.2166 201.2490 0001618  90.0580 270.0597 15.08840052 53271,6917.88,95.438,540.865,538.626,0.0
54795.0,STARLINK-5436,PAYLOAD,2023-11-20 21:49:18,15.08844317,0.0001613,53.2163,198.8698,90.5023,269.6154,9.8765e-05,1.284e-05,0.0,0 STARLINK-5436,1 54795U 22175AP  23324.90923642  .00001284  00000-0  98765-4 0  9990,2 54795  53.2163 198.8698 0001613  90.5023 269.6154 15.08844317 53351,6917.867,95.437,540.848,538.616,0.0
54795.0,STARLINK-5436,PAYLOAD,2023-11-20 23:24:41,15.08845682,0.0001612,53.2165,198.5725,90.314,269.8037,0.00010894,1.446e-05,0.0,0 STARLINK-5436,1 54795U 22175AP  23324.97547526  .00001446  00000-0  10894-3 0  9996,2 54795  53.2165 198.5725 0001612  90.3140 269.8037 15.08845682 51208,6917.863,95.437,540.843,538.613,0.0
54795.0,STARLINK-5436,PAYLOAD,2023-11-21 08:57:00,15.08833297,0.0001804,53.2169,196.7869,86.9246,273.1952,0.00019178,2.765e-05,0.0,0 STARLINK-5436,1 54795U 22175AP  23325.37292226  .00002765  00000-0  19178-3 0  9994,2 54795  53.2169 196.7869 0001804  86.9246 273.1952 15.08833297 51261,6917.901,95.438,541.014,538.518,0.0
54795.0,STARLINK-5436,PAYLOAD,2023-11-21 20:04:42,15.08840376,0.0001603,53.2166,194.7058,89.0302,271.0873,8.1247e-05,1.005e-05,0.0,0 STARLINK-5436,1 54795U 22175AP  23325.83660010  .00001005  00000-0  81247-4 0  9998,2 54795  53.2166 194.7058 0001603  89.0302 271.0873 15.08840376 53492,6917.879,95.438,540.853,538.635,0.0
54795.0,STARLINK-5436,PAYLOAD,2023-11-21 21:40:05,15.08842241,0.0001507,53.216,194.4081,92.9339,267.1825,3.9708e-05,3.44e-06,0.0,0 STARLINK-5436,1 54795U 22175AP  23325.90283942  .00000344  00000-0  39708-4 0  9991,2 54795  53.2160 194.4081 0001507  92.9339 267.1825 15.08842241 53503,6917.874,95.437,540.781,538.696,0.0
54795.0,STARLINK-5436,PAYLOAD,2023-11-22 19:55:28,15.0884493,0.0001423,53.216,190.2452,95.088,265.0274,6.2309e-05,7.04e-06,0.0,0 STARLINK-5436,1 54795U 22175AP  23326.83019584  .00000704  00000-0  62309-4 0  9996,2 54795  53.2160 190.2452 0001423  95.0880 265.0274 15.08844930 51488,6917.865,95.437,540.715,538.746,0.0
54795.0,STARLINK-5436,PAYLOAD,2023-11-22 21:30:51,15.08852622,0.0001425,53.216,189.9478,98.0753,262.0401,-1.1981e-05,-4.79e-06,0.0,0 STARLINK-5436,1 54795U 22175AP  23326.89643364 -.00000479  00000-0 -11981-4 0  9992,2 54795  53.2160 189.9478 0001425  98.0753 262.0401 15.08852622 53652,6917.842,95.437,540.693,538.721,0.0
54795.0,STARLINK-5436,PAYLOAD,2023-11-23 19:46:17,15.08830186,0.0001388,53.2156,185.785,92.2757,267.8394,2.4544e-05,1.03e-06,0.0,0 STARLINK-5436,1 54795U 22175AP  23327.82380845  .00000103  00000-0  24544-4 0  9999,2 54795  53.2156 185.7850 0001388  92.2757 267.8394 15.08830186 51634,6917.91,95.438,540.736,538.815,0.0
54795.0,STARLINK-5436,PAYLOAD,2023-11-23 21:21:40,15.08831602,0.0001358,53.2157,185.4881,88.4749,271.6398,3.802e-06,-2.27e-06,0.0,0 STARLINK-5436,1 54795U 22175AP  23327.89004841 -.00000227  00000-0  38020-5 0  9998,2 54795  53.2157 185.4881 0001358  88.4749 271.6398 15.08831602 53803,6917.906,95.438,540.711,538.832,0.0
